GECAM-B                 
1 47235U 20094B   26058.19405615  .00003224  00000+0  23073-3 0  9996
2 47235  28.9982  10.8844 0010635 257.2071 102.7339 15.01652363285175
STARLINK-35156          
1 65607U 25207R   26068.74209752  .00012111  00000+0  84245-3 0  9999
2 65607  97.6035 138.7823 0000149 115.2803 244.8439 15.05635725 28274
